[{"OBJECT_NAME":"LEMUR-2-STARLIGHT","OBJECT_ID":"2025-276DY","EPOCH":"2026-04-04T17:24:41.133312","MEAN_MOTION":14.98280772,"ECCENTRICITY":0.00143524,"INCLINATION":97.5282,"RA_OF_ASC_NODE":167.8995,"ARG_OF_PERICENTER":23.0644,"MEAN_ANOMALY":337.1221,"EPHEMERIS_TYPE":0,"CLASSIFICATION_TYPE":"U","NORAD_CAT_ID":66783,"ELEMENT_SET_NO":999,"REV_AT_EPOCH":1919,"BSTAR":0.0011137713,"MEAN_MOTION_DOT":0.00013234,"MEAN_MOTION_DDOT":0},{"OBJECT_NAME":"LEMUR-2-TARTIFLETTE","OBJECT_ID":"2025-276DZ","EPOCH":"2026-04-04T22:05:25.333440","MEAN_MOTION":14.98162223,"ECCENTRICITY":0.00135724,"INCLINATION":97.5288,"RA_OF_ASC_NODE":168.1014,"ARG_OF_PERICENTER":29.3593,"MEAN_ANOMALY":330.839,"EPHEMERIS_TYPE":0,"CLASSIFICATION_TYPE":"U","NORAD_CAT_ID":66784,"ELEMENT_SET_NO":999,"REV_AT_EPOCH":1922,"BSTAR":0.00069350595,"MEAN_MOTION_DOT":8.186e-5,"MEAN_MOTION_DDOT":0},{"OBJECT_NAME":"LEMUR-2-VUKASIN","OBJECT_ID":"2025-276EA","EPOCH":"2026-04-04T17:04:16.790016","MEAN_MOTION":14.99467197,"ECCENTRICITY":0.00088294,"INCLINATION":97.5283,"RA_OF_ASC_NODE":168.0538,"ARG_OF_PERICENTER":26.9491,"MEAN_ANOMALY":333.219,"EPHEMERIS_TYPE":0,"CLASSIFICATION_TYPE":"U","NORAD_CAT_ID":66785,"ELEMENT_SET_NO":999,"REV_AT_EPOCH":1913,"BSTAR":0.00088502667,"MEAN_MOTION_DOT":0.00010816,"MEAN_MOTION_DDOT":0},{"OBJECT_NAME":"LEMUR-2-HOTSPUR-TOM","OBJECT_ID":"2025-276EB","EPOCH":"2026-04-04T21:50:33.514368","MEAN_MOTION":14.98160819,"ECCENTRICITY":0.00145828,"INCLINATION":97.528,"RA_OF_ASC_NODE":168.0934,"ARG_OF_PERICENTER":25.3146,"MEAN_ANOMALY":334.8789,"EPHEMERIS_TYPE":0,"CLASSIFICATION_TYPE":"U","NORAD_CAT_ID":66786,"ELEMENT_SET_NO":999,"REV_AT_EPOCH":1915,"BSTAR":0.00064463199,"MEAN_MOTION_DOT":7.606e-5,"MEAN_MOTION_DDOT":0},{"OBJECT_NAME":"LEMUR-2-MYRA","OBJECT_ID":"2025-276EC","EPOCH":"2026-04-04T22:31:59.802240","MEAN_MOTION":14.9942484,"ECCENTRICITY":0.00122207,"INCLINATION":97.5278,"RA_OF_ASC_NODE":168.2235,"ARG_OF_PERICENTER":35.7456,"MEAN_ANOMALY":324.4583,"EPHEMERIS_TYPE":0,"CLASSIFICATION_TYPE":"U","NORAD_CAT_ID":66787,"ELEMENT_SET_NO":999,"REV_AT_EPOCH":1923,"BSTAR":0.00092585435,"MEAN_MOTION_DOT":0.00011314,"MEAN_MOTION_DDOT":0},{"OBJECT_NAME":"LEMUR-2 FIKRETDENGIZ","OBJECT_ID":"2026-004A","EPOCH":"2026-04-04T21:44:26.505312","MEAN_MOTION":14.87752218,"ECCENTRICITY":0.00096436,"INCLINATION":97.8027,"RA_OF_ASC_NODE":94.6239,"ARG_OF_PERICENTER":31.7634,"MEAN_ANOMALY":328.4162,"EPHEMERIS_TYPE":0,"CLASSIFICATION_TYPE":"U","NORAD_CAT_ID":67363,"ELEMENT_SET_NO":999,"REV_AT_EPOCH":1238,"BSTAR":0.00069968008,"MEAN_MOTION_DOT":6.336e-5,"MEAN_MOTION_DDOT":0},{"OBJECT_NAME":"LEMUR-2-CALLUM-K-J","OBJECT_ID":"2026-004B","EPOCH":"2026-04-04T12:05:12.115680","MEAN_MOTION":14.87450029,"ECCENTRICITY":0.00092128,"INCLINATION":97.806,"RA_OF_ASC_NODE":94.2579,"ARG_OF_PERICENTER":22.2968,"MEAN_ANOMALY":337.8647,"EPHEMERIS_TYPE":0,"CLASSIFICATION_TYPE":"U","NORAD_CAT_ID":67364,"ELEMENT_SET_NO":999,"REV_AT_EPOCH":1233,"BSTAR":0.00054703113,"MEAN_MOTION_DOT":4.904e-5,"MEAN_MOTION_DDOT":0},{"OBJECT_NAME":"LEMUR-2-MARIO-SOUSA","OBJECT_ID":"2026-004C","EPOCH":"2026-04-04T13:28:27.686784","MEAN_MOTION":14.87907857,"ECCENTRICITY":0.0009288,"INCLINATION":97.8002,"RA_OF_ASC_NODE":94.2841,"ARG_OF_PERICENTER":34.8032,"MEAN_ANOMALY":325.379,"EPHEMERIS_TYPE":0,"CLASSIFICATION_TYPE":"U","NORAD_CAT_ID":67365,"ELEMENT_SET_NO":999,"REV_AT_EPOCH":1234,"BSTAR":0.00088905,"MEAN_MOTION_DOT":8.099e-5,"MEAN_MOTION_DDOT":0},{"OBJECT_NAME":"LEMUR-2-SONNENBLUME","OBJECT_ID":"2026-004E","EPOCH":"2026-04-04T13:20:03.367392","MEAN_MOTION":14.87934727,"ECCENTRICITY":0.0009023,"INCLINATION":97.7993,"RA_OF_ASC_NODE":94.2802,"ARG_OF_PERICENTER":36.1472,"MEAN_ANOMALY":324.0353,"EPHEMERIS_TYPE":0,"CLASSIFICATION_TYPE":"U","NORAD_CAT_ID":67367,"ELEMENT_SET_NO":999,"REV_AT_EPOCH":1234,"BSTAR":0.00069961,"MEAN_MOTION_DOT":6.364e-5,"MEAN_MOTION_DDOT":0},{"OBJECT_NAME":"LEMUR-2-WOBLER","OBJECT_ID":"2026-004F","EPOCH":"2026-04-04T23:00:08.664768","MEAN_MOTION":14.8797479,"ECCENTRICITY":0.00088305,"INCLINATION":97.8055,"RA_OF_ASC_NODE":94.7325,"ARG_OF_PERICENTER":25.6858,"MEAN_ANOMALY":334.4795,"EPHEMERIS_TYPE":0,"CLASSIFICATION_TYPE":"U","NORAD_CAT_ID":67368,"ELEMENT_SET_NO":999,"REV_AT_EPOCH":1240,"BSTAR":0.00070103349,"MEAN_MOTION_DOT":6.383e-5,"MEAN_MOTION_DDOT":0},{"OBJECT_NAME":"LEMUR-2-GRAM-E-SUE","OBJECT_ID":"2026-004H","EPOCH":"2026-04-04T13:09:03.551328","MEAN_MOTION":14.88075749,"ECCENTRICITY":0.0008216,"INCLINATION":97.7982,"RA_OF_ASC_NODE":94.2805,"ARG_OF_PERICENTER":39.9566,"MEAN_ANOMALY":320.2254,"EPHEMERIS_TYPE":0,"CLASSIFICATION_TYPE":"U","NORAD_CAT_ID":67370,"ELEMENT_SET_NO":999,"REV_AT_EPOCH":1234,"BSTAR":0.00066342,"MEAN_MOTION_DOT":6.052e-5,"MEAN_MOTION_DDOT":0},{"OBJECT_NAME":"LEMUR-2-KATIE","OBJECT_ID":"2026-004AA","EPOCH":"2026-04-04T21:04:36.715008","MEAN_MOTION":14.89516644,"ECCENTRICITY":0.00027968,"INCLINATION":97.8049,"RA_OF_ASC_NODE":94.8348,"ARG_OF_PERICENTER":13.0765,"MEAN_ANOMALY":347.0525,"EPHEMERIS_TYPE":0,"CLASSIFICATION_TYPE":"U","NORAD_CAT_ID":67387,"ELEMENT_SET_NO":999,"REV_AT_EPOCH":1239,"BSTAR":0.00089709493,"MEAN_MOTION_DOT":8.5e-5,"MEAN_MOTION_DDOT":0},{"OBJECT_NAME":"LEMUR-2-HCS-BAZUS","OBJECT_ID":"2026-004AB","EPOCH":"2026-04-04T22:35:45.098880","MEAN_MOTION":14.89456538,"ECCENTRICITY":0.00021977,"INCLINATION":97.8035,"RA_OF_ASC_NODE":94.8956,"ARG_OF_PERICENTER":12.4847,"MEAN_ANOMALY":347.6424,"EPHEMERIS_TYPE":0,"CLASSIFICATION_TYPE":"U","NORAD_CAT_ID":67388,"ELEMENT_SET_NO":999,"REV_AT_EPOCH":1240,"BSTAR":0.00033667972,"MEAN_MOTION_DOT":3.148e-5,"MEAN_MOTION_DDOT":0}]
