LEMUR-2-STARLIGHT       
1 66783U 25276DY  26094.72547608  .00013234  00000+0  11138-2 0  9990
2 66783  97.5282 167.8995 0014352  23.0644 337.1221 14.98280772 19191
LEMUR-2-TARTIFLETTE     
1 66784U 25276DZ  26094.92043210  .00008186  00000+0  69351-3 0  9994
2 66784  97.5288 168.1014 0013572  29.3593 330.8390 14.98162223 19220
LEMUR-2-VUKASIN         
1 66785U 25276EA  26094.71130544  .00010816  00000+0  88503-3 0  9992
2 66785  97.5283 168.0538 0008829  26.9491 333.2190 14.99467197 19139
LEMUR-2-HOTSPUR-TOM     
1 66786U 25276EB  26094.91011012  .00007606  00000+0  64463-3 0  9995
2 66786  97.5280 168.0934 0014582  25.3146 334.8789 14.98160819 19153
LEMUR-2-MYRA            
1 66787U 25276EC  26094.93888660  .00011314  00000+0  92585-3 0  9996
2 66787  97.5278 168.2235 0012220  35.7456 324.4583 14.99424840 19237
LEMUR-2 FIKRETDENGIZ    
1 67363U 26004A   26094.90586233  .00006336  00000+0  69968-3 0  9992
2 67363  97.8027  94.6239 0009643  31.7634 328.4162 14.87752218 12384
LEMUR-2-CALLUM-K-J      
1 67364U 26004B   26094.50361245  .00004904  00000+0  54703-3 0  9993
2 67364  97.8060  94.2579 0009212  22.2968 337.8647 14.87450029 12334
LEMUR-2-MARIO-SOUSA     
1 67365U 26004C   26094.56143156  .00008099  00000+0  88905-3 0  9999
2 67365  97.8002  94.2841 0009288  34.8032 325.3790 14.87907857 12345
LEMUR-2-SONNENBLUME     
1 67367U 26004E   26094.55559453  .00006364  00000+0  69961-3 0  9995
2 67367  97.7993  94.2802 0009023  36.1472 324.0353 14.87934727 12349
LEMUR-2-WOBLER          
1 67368U 26004F   26094.95843362  .00006383  00000+0  70103-3 0  9996
2 67368  97.8055  94.7325 0008830  25.6858 334.4795 14.87974790 12407
LEMUR-2-GRAM-E-SUE      
1 67370U 26004H   26094.54795777  .00006052  00000+0  66342-3 0  9993
2 67370  97.7982  94.2805 0008216  39.9566 320.2254 14.88075749 12341
LEMUR-2-KATIE           
1 67387U 26004AA  26094.87820272  .00008500  00000+0  89709-3 0  9998
2 67387  97.8049  94.8348 0002796  13.0765 347.0525 14.89516644 12391
LEMUR-2-HCS-BAZUS       
1 67388U 26004AB  26094.94149420  .00003148  00000+0  33668-3 0  9992
2 67388  97.8035  94.8956 0002197  12.4847 347.6424 14.89456538 12402
